start=new Date('2021-12-15T00:00:00.000Z').valueOf();
sats=[{"LAUNCH_DATE":"2021-01-20","RCS_SIZE":"LARGE","BSTAR":"0.00018885000000","MEAN_MOTION_DOT":"0.00002533","PERIAPSIS":"545.664","ARG_OF_PERICENTER":"87.7584","OBJECT_NAME":"STARLINK-2096","OBJECT_TYPE":"PAYLOAD","CLASSIFICATION_TYPE":"U","SEMIMAJOR_AXIS":"6925.325","EPHEMERIS_TYPE":"0","APOAPSIS":"548.716","REF_FRAME":"TEME","MEAN_ELEMENT_THEORY":"SGP4","ELEMENT_SET_NO":"999","SITE":"AFETR","TLE_LINE2":"2 47376  53.0550 162.4097 0002203  87.7584 272.3658 15.06407687 50004","MEAN_MOTION_DDOT":"0.0000000000000","GP_ID":"191695102","CENTER_NAME":"EARTH","DECAY_DATE":null,"FILE":"3240057","MEAN_ANOMALY":"272.3658","ECCENTRICITY":"0.00022030","REV_AT_EPOCH":"5000","NORAD_CAT_ID":"47376","TLE_LINE1":"1 47376U 21005AD  21348.57367818  .00002533  00000-0  18885-3 0  9994","MEAN_MOTION":"15.06407687","OBJECT_ID":"2021-005AD","RA_OF_ASC_NODE":"162.4097","EPOCH":"2021-12-14T13:46:05.794752","COUNTRY_CODE":"US","TIME_SYSTEM":"UTC","INCLINATION":"53.0550","PERIOD":"95.592"},{"ARG_OF_PERICENTER":"89.3989","OBJECT_NAME":"STARLINK-2097","MEAN_MOTION_DOT":"0.00000303","PERIAPSIS":"545.359","RCS_SIZE":"LARGE","BSTAR":"0.00003928700000","LAUNCH_DATE":"2021-01-20","MEAN_MOTION_DDOT":"0.0000000000000","ELEMENT_SET_NO":"999","TLE_LINE2":"2 47377  53.0595 162.7354 0002700  89.3989 270.7309 15.06395169 49994","SITE":"AFETR","REF_FRAME":"TEME","MEAN_ELEMENT_THEORY":"SGP4","APOAPSIS":"549.098","EPHEMERIS_TYPE":"0","SEMIMAJOR_AXIS":"6925.363","CLASSIFICATION_TYPE":"U","OBJECT_TYPE":"PAYLOAD","REV_AT_EPOCH":"4999","NORAD_CAT_ID":"47377","ECCENTRICITY":"0.00027000","FILE":"3240057","MEAN_ANOMALY":"270.7309","DECAY_DATE":null,"GP_ID":"191695852","CENTER_NAME":"EARTH","PERIOD":"95.592","INCLINATION":"53.0595","EPOCH":"2021-12-14T11:49:22.131264","COUNTRY_CODE":"US","TIME_SYSTEM":"UTC","MEAN_MOTION":"15.06395169","RA_OF_ASC_NODE":"162.7354","OBJECT_ID":"2021-005AE","TLE_LINE1":"1 47377U 21005AE  21348.49261726  .00000303  00000-0  39287-4 0  9990"},{"CLASSIFICATION_TYPE":"U","SEMIMAJOR_AXIS":"6925.357","EPHEMERIS_TYPE":"0","OBJECT_TYPE":"PAYLOAD","MEAN_MOTION_DDOT":"0.0000000000000","TLE_LINE2":"2 47378  53.0563 122.5055 0001856 103.1183 257.0013 15.06397226 50565","SITE":"AFETR","ELEMENT_SET_NO":"999","MEAN_ELEMENT_THEORY":"SGP4","REF_FRAME":"TEME","APOAPSIS":"548.507","LAUNCH_DATE":"2021-01-20","OBJECT_NAME":"STARLINK-2098","ARG_OF_PERICENTER":"103.1183","PERIAPSIS":"545.937","MEAN_MOTION_DOT":"0.00000865","BSTAR":"0.00007699300000","RCS_SIZE":"LARGE","MEAN_MOTION":"15.06397226","OBJECT_ID":"2021-005AF","RA_OF_ASC_NODE":"122.5055","TLE_LINE1":"1 47378U 21005AF  21348.55155581  .00000865  00000-0  76993-4 0  9997","PERIOD":"95.592","INCLINATION":"53.0563","TIME_SYSTEM":"UTC","EPOCH":"2021-12-14T13:14:14.421984","COUNTRY_CODE":"US","MEAN_ANOMALY":"257.0013","FILE":"3240057","DECAY_DATE":null,"CENTER_NAME":"EARTH","GP_ID":"191694101","NORAD_CAT_ID":"47378","REV_AT_EPOCH":"5056","ECCENTRICITY":"0.00018560"},{"NORAD_CAT_ID":"47379","REV_AT_EPOCH":"5054","ECCENTRICITY":"0.00019130","MEAN_ANOMALY":"260.9728","FILE":"3240057","DECAY_DATE":null,"GP_ID":"191694351","CENTER_NAME":"EARTH","PERIOD":"95.593","INCLINATION":"53.0546","TIME_SYSTEM":"UTC","EPOCH":"2021-12-14T10:13:47.366688","COUNTRY_CODE":"US","MEAN_MOTION":"15.06393721","OBJECT_ID":"2021-005AG","RA_OF_ASC_NODE":"123.0585","TLE_LINE1":"1 47379U 21005AG  21348.42624267  .00000857  00000-0  76415-4 0  9996","OBJECT_NAME":"STARLINK-2099","ARG_OF_PERICENTER":"99.1477","MEAN_MOTION_DOT":"0.00000857","PERIAPSIS":"545.908","BSTAR":"0.00007641500000","RCS_SIZE":"LARGE","LAUNCH_DATE":"2021-01-20","MEAN_MOTION_DDOT":"0.0000000000000","TLE_LINE2":"2 47379  53.0546 123.0585 0001913  99.1477 260.9728 15.06393721 50545","SITE":"AFETR","ELEMENT_SET_NO":"999","MEAN_ELEMENT_THEORY":"SGP4","REF_FRAME":"TEME","APOAPSIS":"548.558","SEMIMAJOR_AXIS":"6925.368","EPHEMERIS_TYPE":"0","CLASSIFICATION_TYPE":"U","OBJECT_TYPE":"PAYLOAD"},{"PERIAPSIS":"545.878","MEAN_MOTION_DOT":"0.00000937","OBJECT_NAME":"STARLINK-2100","ARG_OF_PERICENTER":"92.8961","BSTAR":"0.00008176900000","RCS_SIZE":"LARGE","LAUNCH_DATE":"2021-01-20","SITE":"AFETR","TLE_LINE2":"2 47380  53.0550 132.9468 0001891  92.8961 267.2245 15.06408341 50419","ELEMENT_SET_NO":"999","MEAN_MOTION_DDOT":"0.0000000000000","APOAPSIS":"548.498","MEAN_ELEMENT_THEORY":"SGP4","REF_FRAME":"TEME","SEMIMAJOR_AXIS":"6925.323","EPHEMERIS_TYPE":"0","CLASSIFICATION_TYPE":"U","OBJECT_TYPE":"PAYLOAD","ECCENTRICITY":"0.00018910","NORAD_CAT_ID":"47380","REV_AT_EPOCH":"5041","DECAY_DATE":null,"MEAN_ANOMALY":"267.2245","FILE":"3240057","CENTER_NAME":"EARTH","GP_ID":"191695602","INCLINATION":"53.0550","PERIOD":"95.592","TIME_SYSTEM":"UTC","EPOCH":"2021-12-14T10:54:54.235296","COUNTRY_CODE":"US","OBJECT_ID":"2021-005AH","MEAN_MOTION":"15.06408341","RA_OF_ASC_NODE":"132.9468","TLE_LINE1":"1 47380U 21005AH  21348.45479439  .00000937  00000-0  81769-4 0  9997"},{"LAUNCH_DATE":"2021-01-20","OBJECT_NAME":"STARLINK-2101","ARG_OF_PERICENTER":"95.1044","PERIAPSIS":"545.724","MEAN_MOTION_DOT":"0.00000569","BSTAR":"0.00005709100000","RCS_SIZE":"LARGE","SEMIMAJOR_AXIS":"6925.338","CLASSIFICATION_TYPE":"U","EPHEMERIS_TYPE":"0","OBJECT_TYPE":"PAYLOAD","MEAN_MOTION_DDOT":"0.0000000000000","TLE_LINE2":"2 47381  53.0550 136.4228 0002136  95.1044 265.0189 15.06403519 51353","SITE":"AFETR","ELEMENT_SET_NO":"999","MEAN_ELEMENT_THEORY":"SGP4","REF_FRAME":"TEME","APOAPSIS":"548.682","MEAN_ANOMALY":"265.0189","FILE":"3240257","DECAY_DATE":null,"CENTER_NAME":"EARTH","GP_ID":"191701263","NORAD_CAT_ID":"47381","REV_AT_EPOCH":"5135","ECCENTRICITY":"0.00021360","RA_OF_ASC_NODE":"136.4228","OBJECT_ID":"2021-005AJ","MEAN_MOTION":"15.06403519","TLE_LINE1":"1 47381U 21005AJ  21348.79435837  .00000569  00000-0  57091-4 0  9991","INCLINATION":"53.0550","PERIOD":"95.592","TIME_SYSTEM":"UTC","COUNTRY_CODE":"US","EPOCH":"2021-12-14T19:03:52.563168"},{"TIME_SYSTEM":"UTC","COUNTRY_CODE":"US","EPOCH":"2021-12-14T18:41:59.949312","INCLINATION":"53.0552","PERIOD":"95.593","TLE_LINE1":"1 47382U 21005AK  21348.77916608 -.00001341  00000-0 -71169-4 0  9993","RA_OF_ASC_NODE":"131.4708","OBJECT_ID":"2021-005AK","MEAN_MOTION":"15.06394217","ECCENTRICITY":"0.00019170","NORAD_CAT_ID":"47382","REV_AT_EPOCH":"5139","GP_ID":"191699889","CENTER_NAME":"EARTH","DECAY_DATE":null,"MEAN_ANOMALY":"262.5136","FILE":"3240165","APOAPSIS":"548.559","REF_FRAME":"TEME","MEAN_ELEMENT_THEORY":"SGP4","TLE_LINE2":"2 47382  53.0552 131.4708 0001917  97.6071 262.5136 15.06394217 51399","SITE":"AFETR","ELEMENT_SET_NO":"999","MEAN_MOTION_DDOT":"0.0000000000000","OBJECT_TYPE":"PAYLOAD","CLASSIFICATION_TYPE":"U","SEMIMAJOR_AXIS":"6925.366","EPHEMERIS_TYPE":"0","BSTAR":"-0.00007116900000","RCS_SIZE":"LARGE","PERIAPSIS":"545.904","MEAN_MOTION_DOT":"-0.00001341","OBJECT_NAME":"STARLINK-2102","ARG_OF_PERICENTER":"97.6071","LAUNCH_DATE":"2021-01-20"},{"NORAD_CAT_ID":"47383","REV_AT_EPOCH":"5056","ECCENTRICITY":"0.00020250","MEAN_ANOMALY":"273.3547","FILE":"3240057","DECAY_DATE":null,"CENTER_NAME":"EARTH","GP_ID":"191694851","INCLINATION":"53.0548","PERIOD":"95.592","TIME_SYSTEM":"UTC","EPOCH":"2021-12-14T12:46:21.810432","COUNTRY_CODE":"US","OBJECT_ID":"2021-005AL","RA_OF_ASC_NODE":"122.5907","MEAN_MOTION":"15.06398279","TLE_LINE1":"1 47383U 21005AL  21348.53219688  .00001041  00000-0  88815-4 0  9993","OBJECT_NAME":"STARLINK-2103","ARG_OF_PERICENTER":"86.7673","PERIAPSIS":"545.816","MEAN_MOTION_DOT":"0.00001041","BSTAR":"0.00008881500000","RCS_SIZE":"LARGE","LAUNCH_DATE":"2021-01-20","MEAN_MOTION_DDOT":"0.0000000000000","SITE":"AFETR","TLE_LINE2":"2 47383  53.0548 122.5907 0002025  86.7673 273.3547 15.06398279 50561","ELEMENT_SET_NO":"999","REF_FRAME":"TEME","MEAN_ELEMENT_THEORY":"SGP4","APOAPSIS":"548.621","EPHEMERIS_TYPE":"0","SEMIMAJOR_AXIS":"6925.354","CLASSIFICATION_TYPE":"U","OBJECT_TYPE":"PAYLOAD"},{"PERIOD":"95.592","INCLINATION":"53.0548","COUNTRY_CODE":"US","EPOCH":"2021-12-14T19:23:07.577376","TIME_SYSTEM":"UTC","OBJECT_ID":"2021-005AM","MEAN_MOTION":"15.06395603","RA_OF_ASC_NODE":"131.3594","TLE_LINE1":"1 47384U 21005AM  21348.80772659  .00000570  00000-0  57158-4 0  9998","ECCENTRICITY":"0.00020940","REV_AT_EPOCH":"5107","NORAD_CAT_ID":"47384","DECAY_DATE":null,"FILE":"3240165","MEAN_ANOMALY":"265.2066","GP_ID":"191699892","CENTER_NAME":"EARTH","ELEMENT_SET_NO":"999","TLE_LINE2":"2 47384  53.0548 131.3594 0002094  94.9162 265.2066 15.06395603 51073","SITE":"AFETR","MEAN_MOTION_DDOT":"0.0000000000000","APOAPSIS":"548.677","MEAN_ELEMENT_THEORY":"SGP4","REF_FRAME":"TEME","SEMIMAJOR_AXIS":"6925.362","CLASSIFICATION_TYPE":"U","EPHEMERIS_TYPE":"0","OBJECT_TYPE":"PAYLOAD","PERIAPSIS":"545.777","MEAN_MOTION_DOT":"0.00000570","ARG_OF_PERICENTER":"94.9162","OBJECT_NAME":"STARLINK-2104","RCS_SIZE":"LARGE","BSTAR":"0.00005715800000","LAUNCH_DATE":"2021-01-20"},{"REF_FRAME":"TEME","MEAN_ELEMENT_THEORY":"SGP4","APOAPSIS":"548.571","MEAN_MOTION_DDOT":"0.0000000000000","ELEMENT_SET_NO":"999","SITE":"AFETR","TLE_LINE2":"2 47385  53.0544 131.2686 0001946  99.5403 260.5806 15.06396911 51078","OBJECT_TYPE":"PAYLOAD","SEMIMAJOR_AXIS":"6925.358","CLASSIFICATION_TYPE":"U","EPHEMERIS_TYPE":"0","RCS_SIZE":"LARGE","BSTAR":"-0.00003786300000","ARG_OF_PERICENTER":"99.5403","OBJECT_NAME":"STARLINK-2105","PERIAPSIS":"545.875","MEAN_MOTION_DOT":"-0.00000846","LAUNCH_DATE":"2021-01-20","EPOCH":"2021-12-14T19:50:59.343072","COUNTRY_CODE":"US","TIME_SYSTEM":"UTC","PERIOD":"95.592","INCLINATION":"53.0544","TLE_LINE1":"1 47385U 21005AN  21348.82707573 -.00000846  00000-0 -37863-4 0  9993","RA_OF_ASC_NODE":"131.2686","OBJECT_ID":"2021-005AN","MEAN_MOTION":"15.06396911","REV_AT_EPOCH":"5107","NORAD_CAT_ID":"47385","ECCENTRICITY":"0.00019460","CENTER_NAME":"EARTH","GP_ID":"191699386","FILE":"3240165","MEAN_ANOMALY":"260.5806","DECAY_DATE":null}];
